{"type": "FeatureCollection", "features": [ {"type": "Feature", "properties": {"norad_id": 30501, "name": "FENGYUN 1C DEB", "group": "fengyun-1c-debris", "lat": 68.19966519192606, "lon": -173.4479226000978, "alt_km": 794.1774294126644, "timestamp": "2025-12-17T23:38:07.130749+00:00", "meta": {"OBJECT_NAME": "FENGYUN 1C DEB", "OBJECT_ID": "1999-025AHP", "EPOCH": "2025-12-16T22:08:40.294176", "MEAN_MOTION": 14.25371768, "ECCENTRICITY": 0.00404761, "INCLINATION": 99.0839, "RA_OF_ASC_NODE": 341.875, "ARG_OF_PERICENTER": 190.4906, "MEAN_ANOMALY": 232.7871, "EPHEMERIS_TYPE": 0, "CLASSIFICATION_TYPE": "U", "NORAD_CAT_ID": 30501, "ELEMENT_SET_NO": 999, "REV_AT_EPOCH": 96979, "BSTAR": 0.0012954289, "MEAN_MOTION_DOT": 3.034e-05, "MEAN_MOTION_DDOT": 0}, "tle": {"line1": "1 30501U 99025AHP 25350.92268859  .00003034  00000+0  12954-2 0  9990", "line2": "2 30501  99.0839 341.8750 0040476 190.4906 232.7871 14.25371768969791"}}, "geometry": {"type": "Point", "coordinates": [-173.4479226000978, 68.19966519192606]}}, {"type": "Feature", "properties": {"norad_id": 30503, "name": "FENGYUN 1C DEB", "group": "fengyun-1c-debris", "lat": 27.488092281909953, "lon": 20.518144308863437, "alt_km": 838.1586856337308, "timestamp": "2025-12-17T23:38:07.130760+00:00", "meta": {"OBJECT_NAME": "FENGYUN 1C DEB", "OBJECT_ID": "1999-025AHR", "EPOCH": "2025-12-17T08:29:28.992192", "MEAN_MOTION": 14.16130116, "ECCENTRICITY": 0.00082803, "INCLINATION": 99.2042, "RA_OF_ASC_NODE": 195.027, "ARG_OF_PERICENTER": 252.5049, "MEAN_ANOMALY": 284.5246, "EPHEMERIS_TYPE": 0, "CLASSIFICATION_TYPE": "U", "NORAD_CAT_ID": 30503, "ELEMENT_SET_NO": 999, "REV_AT_EPOCH": 97411, "BSTAR": 0.00025471248, "MEAN_MOTION_DOT": 4.56e-06, "MEAN_MOTION_DDOT": 0}, "tle": {"line1": "1 30503U 99025AHR 25351.35380778  .00000456  00000+0  25471-3 0  9999", "line2": "2 30503  99.2042 195.0270 0008280 252.5049 284.5246 14.16130116974115"}}, "geometry": {"type": "Point", "coordinates": [20.518144308863437, 27.488092281909953]}}, {"type": "Feature", "properties": {"norad_id": 30504, "name": "FENGYUN 1C DEB", "group": "fengyun-1c-debris", "lat": 80.12451776014592, "lon": -27.642905972795102, "alt_km": 850.2723208649768, "timestamp": "2025-12-17T23:38:07.130770+00:00", "meta": {"OBJECT_NAME": "FENGYUN 1C DEB", "OBJECT_ID": "1999-025AHS", "EPOCH": "2025-12-16T15:42:44.428032", "MEAN_MOTION": 14.20504013, "ECCENTRICITY": 0.01123357, "INCLINATION": 99.025, "RA_OF_ASC_NODE": 36.9162, "ARG_OF_PERICENTER": 205.2699, "MEAN_ANOMALY": 283.6753, "EPHEMERIS_TYPE": 0, "CLASSIFICATION_TYPE": "U", "NORAD_CAT_ID": 30504, "ELEMENT_SET_NO": 999, "REV_AT_EPOCH": 97449, "BSTAR": 0.00052735166, "MEAN_MOTION_DOT": 1.16e-05, "MEAN_MOTION_DDOT": 0}, "tle": {"line1": "1 30504U 99025AHS 25350.65468088  .00001160  00000+0  52735-3 0  9999", "line2": "2 30504  99.0250  36.9162 0112335 205.2699 283.6753 14.20504013974491"}}, "geometry": {"type": "Point", "coordinates": [-27.642905972795102, 80.12451776014592]}}, {"type": "Feature", "properties": {"norad_id": 30505, "name": "FENGYUN 1C DEB", "group": "fengyun-1c-debris", "lat": 16.558186702926058, "lon": 69.02969749229543, "alt_km": 858.5167965327182, "timestamp": "2025-12-17T23:38:07.130781+00:00", "meta": {"OBJECT_NAME": "FENGYUN 1C DEB", "OBJECT_ID": "1999-025AHT", "EPOCH": "2025-12-17T05:14:59.085024", "MEAN_MOTION": 14.22068284, "ECCENTRICITY": 0.00638459, "INCLINATION": 98.9268, "RA_OF_ASC_NODE": 70.933, "ARG_OF_PERICENTER": 229.2902, "MEAN_ANOMALY": 187.5803, "EPHEMERIS_TYPE": 0, "CLASSIFICATION_TYPE": "U", "NORAD_CAT_ID": 30505, "ELEMENT_SET_NO": 999, "REV_AT_EPOCH": 96987, "BSTAR": 0.001303555, "MEAN_MOTION_DOT": 2.899e-05, "MEAN_MOTION_DDOT": 0}, "tle": {"line1": "1 30505U 99025AHT 25351.21873941  .00002899  00000+0  13036-2 0  9991", "line2": "2 30505  98.9268  70.9330 0063845 229.2902 187.5803 14.22068284969879"}}, "geometry": {"type": "Point", "coordinates": [69.02969749229543, 16.558186702926058]}}, {"type": "Feature", "properties": {"norad_id": 30506, "name": "FENGYUN 1C DEB", "group": "fengyun-1c-debris", "lat": 27.16858043535285, "lon": -178.55543925766, "alt_km": 913.5741531690956, "timestamp": "2025-12-17T23:38:07.130791+00:00", "meta": {"OBJECT_NAME": "FENGYUN 1C DEB", "OBJECT_ID": "1999-025AHU", "EPOCH": "2025-12-17T13:17:28.267296", "MEAN_MOTION": 14.08656181, "ECCENTRICITY": 0.00700734, "INCLINATION": 98.7566, "RA_OF_ASC_NODE": 356.4889, "ARG_OF_PERICENTER": 334.3277, "MEAN_ANOMALY": 153.5656, "EPHEMERIS_TYPE": 0, "CLASSIFICATION_TYPE": "U", "NORAD_CAT_ID": 30506, "ELEMENT_SET_NO": 999, "REV_AT_EPOCH": 96889, "BSTAR": 0.00032692005, "MEAN_MOTION_DOT": 5.32e-06, "MEAN_MOTION_DDOT": 0}, "tle": {"line1": "1 30506U 99025AHU 25351.55379939  .00000532  00000+0  32692-3 0  9999", "line2": "2 30506  98.7566 356.4889 0070073 334.3277 153.5656 14.08656181968897"}}, "geometry": {"type": "Point", "coordinates": [-178.55543925766, 27.16858043535285]}}, {"type": "Feature", "properties": {"norad_id": 30507, "name": "FENGYUN 1C DEB", "group": "fengyun-1c-debris", "lat": -5.753482585420995, "lon": 57.42330292115675, "alt_km": 942.5712700709864, "timestamp": "2025-12-17T23:38:07.130801+00:00", "meta": {"OBJECT_NAME": "FENGYUN 1C DEB", "OBJECT_ID": "1999-025AHV", "EPOCH": "2025-12-17T10:40:48.965088", "MEAN_MOTION": 14.13199393, "ECCENTRICITY": 0.01284344, "INCLINATION": 99.0137, "RA_OF_ASC_NODE": 55.9633, "ARG_OF_PERICENTER": 163.161, "MEAN_ANOMALY": 326.7683, "EPHEMERIS_TYPE": 0, "CLASSIFICATION_TYPE": "U", "NORAD_CAT_ID": 30507, "ELEMENT_SET_NO": 999, "REV_AT_EPOCH": 96564, "BSTAR": 0.00088334675, "MEAN_MOTION_DOT": 1.744e-05, "MEAN_MOTION_DDOT": 0}, "tle": {"line1": "1 30507U 99025AHV 25351.44501117  .00001744  00000+0  88335-3 0  9994", "line2": "2 30507  99.0137  55.9633 0128434 163.1610 326.7683 14.13199393965645"}}, "geometry": {"type": "Point", "coordinates": [57.42330292115675, -5.753482585420995]}}, {"type": "Feature", "properties": {"norad_id": 30509, "name": "FENGYUN 1C DEB", "group": "fengyun-1c-debris", "lat": 62.20871386294296, "lon": -152.91263668231161, "alt_km": 789.5672890714786, "timestamp": "2025-12-17T23:38:07.130812+00:00", "meta": {"OBJECT_NAME": "FENGYUN 1C DEB", "OBJECT_ID": "1999-025AHX", "EPOCH": "2025-12-17T15:04:13.165824", "MEAN_MOTION": 14.07682722, "ECCENTRICITY": 0.01022021, "INCLINATION": 98.4666, "RA_OF_ASC_NODE": 223.1688, "ARG_OF_PERICENTER": 49.6797, "MEAN_ANOMALY": 5.9989, "EPHEMERIS_TYPE": 0, "CLASSIFICATION_TYPE": "U", "NORAD_CAT_ID": 30509, "ELEMENT_SET_NO": 999, "REV_AT_EPOCH": 95791, "BSTAR": 0.0015712517, "MEAN_MOTION_DOT": 2.747e-05, "MEAN_MOTION_DDOT": 0}, "tle": {"line1": "1 30509U 99025AHX 25351.62793016  .00002747  00000+0  15713-2 0  9990", "line2": "2 30509  98.4666 223.1688 0102202  49.6797   5.9989 14.07682722957917"}}, "geometry": {"type": "Point", "coordinates": [-152.91263668231161, 62.20871386294296]}}, {"type": "Feature", "properties": {"norad_id": 30510, "name": "FENGYUN 1C DEB", "group": "fengyun-1c-debris", "lat": -32.04821144385279, "lon": 178.32935807349233, "alt_km": 827.4480138061626, "timestamp": "2025-12-17T23:38:07.130822+00:00", "meta": {"OBJECT_NAME": "FENGYUN 1C DEB", "OBJECT_ID": "1999-025AHY", "EPOCH": "2025-12-17T14:42:55.977696", "MEAN_MOTION": 14.12874097, "ECCENTRICITY": 0.00786193, "INCLINATION": 99.2447, "RA_OF_ASC_NODE": 3.798, "ARG_OF_PERICENTER": 152.6998, "MEAN_ANOMALY": 329.5984, "EPHEMERIS_TYPE": 0, "CLASSIFICATION_TYPE": "U", "NORAD_CAT_ID": 30510, "ELEMENT_SET_NO": 999, "REV_AT_EPOCH": 96643, "BSTAR": 0.0010570076, "MEAN_MOTION_DOT": 1.978e-05, "MEAN_MOTION_DDOT": 0}, "tle": {"line1": "1 30510U 99025AHY 25351.61314789  .00001978  00000+0  10570-2 0  9998", "line2": "2 30510  99.2447   3.7980 0078619 152.6998 329.5984 14.12874097966435"}}, "geometry": {"type": "Point", "coordinates": [178.32935807349233, -32.04821144385279]}}, {"type": "Feature", "properties": {"norad_id": 30514, "name": "FENGYUN 1C DEB", "group": "fengyun-1c-debris", "lat": 41.07794656772657, "lon": 7.966584744666567, "alt_km": 673.2406620956963, "timestamp": "2025-12-17T23:38:07.130832+00:00", "meta": {"OBJECT_NAME": "FENGYUN 1C DEB", "OBJECT_ID": "1999-025AJC", "EPOCH": "2025-12-17T13:24:01.754496", "MEAN_MOTION": 14.34371876, "ECCENTRICITY": 0.01744221, "INCLINATION": 98.4128, "RA_OF_ASC_NODE": 14.9631, "ARG_OF_PERICENTER": 79.8651, "MEAN_ANOMALY": 282.2158, "EPHEMERIS_TYPE": 0, "CLASSIFICATION_TYPE": "U", "NORAD_CAT_ID": 30514, "ELEMENT_SET_NO": 999, "REV_AT_EPOCH": 98294, "BSTAR": 0.00038825108, "MEAN_MOTION_DOT": 1.25e-05, "MEAN_MOTION_DDOT": 0}, "tle": {"line1": "1 30514U 99025AJC 25351.55835364  .00001250  00000+0  38825-3 0  9999", "line2": "2 30514  98.4128  14.9631 0174422  79.8651 282.2158 14.34371876982941"}}, "geometry": {"type": "Point", "coordinates": [7.966584744666567, 41.07794656772657]}}, {"type": "Feature", "properties": {"norad_id": 30515, "name": "FENGYUN 1C DEB", "group": "fengyun-1c-debris", "lat": -42.15119614751179, "lon": -124.70135726613668, "alt_km": 1096.2016164737743, "timestamp": "2025-12-17T23:38:07.130842+00:00", "meta": {"OBJECT_NAME": "FENGYUN 1C DEB", "OBJECT_ID": "1999-025AJD", "EPOCH": "2025-12-17T15:17:18.536640", "MEAN_MOTION": 13.63807656, "ECCENTRICITY": 0.0496982, "INCLINATION": 98.5095, "RA_OF_ASC_NODE": 227.2042, "ARG_OF_PERICENTER": 61.6849, "MEAN_ANOMALY": 354.6591, "EPHEMERIS_TYPE": 0, "CLASSIFICATION_TYPE": "U", "NORAD_CAT_ID": 30515, "ELEMENT_SET_NO": 999, "REV_AT_EPOCH": 93397, "BSTAR": 0.00081164241, "MEAN_MOTION_DOT": 1.461e-05, "MEAN_MOTION_DDOT": 0}, "tle": {"line1": "1 30515U 99025AJD 25351.63702010  .00001461  00000+0  81164-3 0  9998", "line2": "2 30515  98.5095 227.2042 0496982  61.6849 354.6591 13.63807656933972"}}, "geometry": {"type": "Point", "coordinates": [-124.70135726613668, -42.15119614751179]}}]}